[{"OBJECT_NAME":"STARLINK-35075","OBJECT_ID":"2025-212AC","EPOCH":"2026-03-09T22:31:28.722432","MEAN_MOTION":15.30228075,"ECCENTRICITY":0.00010478,"INCLINATION":53.1601,"RA_OF_ASC_NODE":344.3728,"ARG_OF_PERICENTER":111.4182,"MEAN_ANOMALY":248.6931,"EPHEMERIS_TYPE":0,"CLASSIFICATION_TYPE":"U","NORAD_CAT_ID":65702,"ELEMENT_SET_NO":999,"REV_AT_EPOCH":2728,"BSTAR":0.0010826789,"MEAN_MOTION_DOT":0.00031872,"MEAN_MOTION_DDOT":0},{"OBJECT_NAME":"UNKNOWN","OBJECT_ID":"","EPOCH":"2026-02-22T00:08:45.737952","MEAN_MOTION":14.15044008,"ECCENTRICITY":0.0509514,"INCLINATION":65.771,"RA_OF_ASC_NODE":261.596,"ARG_OF_PERICENTER":328.3661,"MEAN_ANOMALY":28.7697,"EPHEMERIS_TYPE":0,"CLASSIFICATION_TYPE":"U","NORAD_CAT_ID":87456,"ELEMENT_SET_NO":999,"REV_AT_EPOCH":62157,"BSTAR":0.00055206,"MEAN_MOTION_DOT":3.756e-5,"MEAN_MOTION_DDOT":0}]
